PE2_FLT2  (TYVAK-0262)  
1 59104U 24043G   26068.92472008  .00004105  00000+0  36572-3 0  9991
2 59104  97.8241 199.4452 0006851  28.1235 332.0355 14.96566721109803
STARLINK-34448          
1 64291U 25123A   26068.72548517  .00001636  00000+0  14490-3 0  9992
2 64291  70.0023 194.3817 0003003 267.7834  92.2981 14.98329161 42845
